FENGYUN 1C DEB          
1 30209U 99025VS  17345.67481015  .00000121  00000-0  94745-4 0  9998
2 30209  98.8833  17.5453 0040380 230.9140 253.6899 14.08769937560157
